STARLINK-33678          
1 63509U 25071S   26068.52288177  .00022355  00000+0  76480-3 0  9994
2 63509  53.1600 140.7135 0001064  61.6042 298.5066 15.30192299 52476
KUIPER-00208            
1 67775U 26030M   26068.67231509  .00043852  00000+0  13883-2 0  9994
2 67775  51.8846 219.6993 0015525  57.3146 302.9333 15.32208734  5080
