[{"OBJECT_NAME":"STARLINK-33678","OBJECT_ID":"2025-071S","EPOCH":"2026-03-09T12:32:56.984928","MEAN_MOTION":15.30192299,"ECCENTRICITY":0.00010644,"INCLINATION":53.16,"RA_OF_ASC_NODE":140.7135,"ARG_OF_PERICENTER":61.6042,"MEAN_ANOMALY":298.5066,"EPHEMERIS_TYPE":0,"CLASSIFICATION_TYPE":"U","NORAD_CAT_ID":63509,"ELEMENT_SET_NO":999,"REV_AT_EPOCH":5247,"BSTAR":0.00076480454,"MEAN_MOTION_DOT":0.00022355,"MEAN_MOTION_DDOT":0},{"OBJECT_NAME":"KUIPER-00208","OBJECT_ID":"2026-030M","EPOCH":"2026-03-09T16:08:08.024640","MEAN_MOTION":15.32208734,"ECCENTRICITY":0.00155248,"INCLINATION":51.8846,"RA_OF_ASC_NODE":219.6993,"ARG_OF_PERICENTER":57.3146,"MEAN_ANOMALY":302.9333,"EPHEMERIS_TYPE":0,"CLASSIFICATION_TYPE":"U","NORAD_CAT_ID":67775,"ELEMENT_SET_NO":999,"REV_AT_EPOCH":508,"BSTAR":0.0013882708,"MEAN_MOTION_DOT":0.00043852,"MEAN_MOTION_DDOT":0}]
